[{"OBJECT_NAME":"ONEWEB-0352","OBJECT_ID":"2021-083AG","EPOCH":"2025-08-31T02:14:05.826336","MEAN_MOTION":13.13469459,"ECCENTRICITY":0.0001303,"INCLINATION":87.9002,"RA_OF_ASC_NODE":17.8851,"ARG_OF_PERICENTER":95.1145,"MEAN_ANOMALY":265.0133,"EPHEMERIS_TYPE":0,"CLASSIFICATION_TYPE":"U","NORAD_CAT_ID":49216,"ELEMENT_SET_NO":999,"REV_AT_EPOCH":19294,"BSTAR":-0.00075487373,"MEAN_MOTION_DOT":-2.63e-6,"MEAN_MOTION_DDOT":0},{"OBJECT_NAME":"ONEWEB-0354","OBJECT_ID":"2021-083AH","EPOCH":"2025-08-31T05:05:01.457952","MEAN_MOTION":13.20772833,"ECCENTRICITY":0.00019573,"INCLINATION":87.9298,"RA_OF_ASC_NODE":332.2297,"ARG_OF_PERICENTER":107.9082,"MEAN_ANOMALY":252.2265,"EPHEMERIS_TYPE":0,"CLASSIFICATION_TYPE":"U","NORAD_CAT_ID":49217,"ELEMENT_SET_NO":999,"REV_AT_EPOCH":19853,"BSTAR":0.00011187564,"MEAN_MOTION_DOT":5.8e-7,"MEAN_MOTION_DDOT":0},{"OBJECT_NAME":"ONEWEB-0355","OBJECT_ID":"2021-083AJ","EPOCH":"2025-08-31T02:55:44.111712","MEAN_MOTION":13.13468926,"ECCENTRICITY":0.00015827,"INCLINATION":87.9019,"RA_OF_ASC_NODE":17.8832,"ARG_OF_PERICENTER":103.0546,"MEAN_ANOMALY":257.076,"EPHEMERIS_TYPE":0,"CLASSIFICATION_TYPE":"U","NORAD_CAT_ID":49218,"ELEMENT_SET_NO":999,"REV_AT_EPOCH":19282,"BSTAR":0.00068083729,"MEAN_MOTION_DOT":2.61e-6,"MEAN_MOTION_DDOT":0},{"OBJECT_NAME":"ONEWEB-0357","OBJECT_ID":"2021-083AK","EPOCH":"2025-08-31T05:00:28.516032","MEAN_MOTION":13.20773854,"ECCENTRICITY":0.00017313,"INCLINATION":87.929,"RA_OF_ASC_NODE":332.2318,"ARG_OF_PERICENTER":101.7031,"MEAN_ANOMALY":258.4297,"EPHEMERIS_TYPE":0,"CLASSIFICATION_TYPE":"U","NORAD_CAT_ID":49219,"ELEMENT_SET_NO":999,"REV_AT_EPOCH":19853,"BSTAR":0.00020713821,"MEAN_MOTION_DOT":9.7e-7,"MEAN_MOTION_DDOT":0},{"OBJECT_NAME":"ONEWEB-0332","OBJECT_ID":"2021-090A","EPOCH":"2025-08-31T06:51:49.849632","MEAN_MOTION":13.14502291,"ECCENTRICITY":0.00016727,"INCLINATION":87.909,"RA_OF_ASC_NODE":347.4291,"ARG_OF_PERICENTER":91.8122,"MEAN_ANOMALY":268.32,"EPHEMERIS_TYPE":0,"CLASSIFICATION_TYPE":"U","NORAD_CAT_ID":49279,"ELEMENT_SET_NO":999,"REV_AT_EPOCH":18949,"BSTAR":0.00064694917,"MEAN_MOTION_DOT":2.53e-6,"MEAN_MOTION_DDOT":0},{"OBJECT_NAME":"ONEWEB-0347","OBJECT_ID":"2021-090B","EPOCH":"2025-08-31T04:46:49.408608","MEAN_MOTION":13.20780047,"ECCENTRICITY":0.00022401,"INCLINATION":87.9296,"RA_OF_ASC_NODE":332.2464,"ARG_OF_PERICENTER":88.8686,"MEAN_ANOMALY":271.2704,"EPHEMERIS_TYPE":0,"CLASSIFICATION_TYPE":"U","NORAD_CAT_ID":49280,"ELEMENT_SET_NO":999,"REV_AT_EPOCH":19276,"BSTAR":0.0022517477,"MEAN_MOTION_DOT":9.29e-6,"MEAN_MOTION_DDOT":0},{"OBJECT_NAME":"ONEWEB-0349","OBJECT_ID":"2021-090C","EPOCH":"2025-08-31T05:32:17.372832","MEAN_MOTION":13.20778884,"ECCENTRICITY":0.00018412,"INCLINATION":87.9288,"RA_OF_ASC_NODE":332.2418,"ARG_OF_PERICENTER":100.446,"MEAN_ANOMALY":259.6881,"EPHEMERIS_TYPE":0,"CLASSIFICATION_TYPE":"U","NORAD_CAT_ID":49281,"ELEMENT_SET_NO":999,"REV_AT_EPOCH":19155,"BSTAR":-0.0024747301,"MEAN_MOTION_DOT":-9.93e-6,"MEAN_MOTION_DDOT":0},{"OBJECT_NAME":"ONEWEB-0353","OBJECT_ID":"2021-090D","EPOCH":"2025-08-31T06:40:25.368096","MEAN_MOTION":13.14502883,"ECCENTRICITY":0.00017449,"INCLINATION":87.9085,"RA_OF_ASC_NODE":347.4167,"ARG_OF_PERICENTER":91.4243,"MEAN_ANOMALY":268.7087,"EPHEMERIS_TYPE":0,"CLASSIFICATION_TYPE":"U","NORAD_CAT_ID":49282,"ELEMENT_SET_NO":999,"REV_AT_EPOCH":18949,"BSTAR":0.00065631968,"MEAN_MOTION_DOT":2.56e-6,"MEAN_MOTION_DDOT":0},{"OBJECT_NAME":"ONEWEB-0356","OBJECT_ID":"2021-090E","EPOCH":"2025-08-31T05:30:00.698400","MEAN_MOTION":13.20773856,"ECCENTRICITY":0.00027755,"INCLINATION":87.9288,"RA_OF_ASC_NODE":332.2334,"ARG_OF_PERICENTER":93.19,"MEAN_ANOMALY":266.955,"EPHEMERIS_TYPE":0,"CLASSIFICATION_TYPE":"U","NORAD_CAT_ID":49283,"ELEMENT_SET_NO":999,"REV_AT_EPOCH":19155,"BSTAR":6.5070558e-5,"MEAN_MOTION_DOT":3.9e-7,"MEAN_MOTION_DDOT":0},{"OBJECT_NAME":"ONEWEB-0358","OBJECT_ID":"2021-090F","EPOCH":"2025-08-31T06:13:11.766144","MEAN_MOTION":13.20770588,"ECCENTRICITY":0.00019725,"INCLINATION":87.9294,"RA_OF_ASC_NODE":332.2192,"ARG_OF_PERICENTER":101.1796,"MEAN_ANOMALY":258.9559,"EPHEMERIS_TYPE":0,"CLASSIFICATION_TYPE":"U","NORAD_CAT_ID":49284,"ELEMENT_SET_NO":999,"REV_AT_EPOCH":19228,"BSTAR":-0.00019379417,"MEAN_MOTION_DOT":-6.6e-7,"MEAN_MOTION_DDOT":0},{"OBJECT_NAME":"ONEWEB-0359","OBJECT_ID":"2021-090G","EPOCH":"2025-08-31T06:08:39.762528","MEAN_MOTION":13.20772779,"ECCENTRICITY":0.00020308,"INCLINATION":87.9284,"RA_OF_ASC_NODE":332.2288,"ARG_OF_PERICENTER":109.5637,"MEAN_ANOMALY":250.5716,"EPHEMERIS_TYPE":0,"CLASSIFICATION_TYPE":"U","NORAD_CAT_ID":49285,"ELEMENT_SET_NO":999,"REV_AT_EPOCH":19226,"BSTAR":0.00012818397,"MEAN_MOTION_DOT":6.5e-7,"MEAN_MOTION_DDOT":0},{"OBJECT_NAME":"ONEWEB-0360","OBJECT_ID":"2021-090H","EPOCH":"2025-08-31T05:55:02.612064","MEAN_MOTION":13.20771599,"ECCENTRICITY":0.00018782,"INCLINATION":87.9284,"RA_OF_ASC_NODE":332.2396,"ARG_OF_PERICENTER":104.2674,"MEAN_ANOMALY":255.8668,"EPHEMERIS_TYPE":0,"CLASSIFICATION_TYPE":"U","NORAD_CAT_ID":49286,"ELEMENT_SET_NO":999,"REV_AT_EPOCH":19157,"BSTAR":0.00012368789,"MEAN_MOTION_DOT":6.3e-7,"MEAN_MOTION_DDOT":0},{"OBJECT_NAME":"ONEWEB-0361","OBJECT_ID":"2021-090J","EPOCH":"2025-08-31T05:27:45.380448","MEAN_MOTION":13.2077293,"ECCENTRICITY":0.0002028,"INCLINATION":87.9292,"RA_OF_ASC_NODE":332.2387,"ARG_OF_PERICENTER":97.5237,"MEAN_ANOMALY":262.6127,"EPHEMERIS_TYPE":0,"CLASSIFICATION_TYPE":"U","NORAD_CAT_ID":49287,"ELEMENT_SET_NO":999,"REV_AT_EPOCH":19202,"BSTAR":1.5476301e-5,"MEAN_MOTION_DOT":1.9e-7,"MEAN_MOTION_DDOT":0},{"OBJECT_NAME":"ONEWEB-0362","OBJECT_ID":"2021-090K","EPOCH":"2025-08-31T00:37:56.449056","MEAN_MOTION":13.19727806,"ECCENTRICITY":0.00016151,"INCLINATION":87.9275,"RA_OF_ASC_NODE":2.679,"ARG_OF_PERICENTER":101.9955,"MEAN_ANOMALY":258.1359,"EPHEMERIS_TYPE":0,"CLASSIFICATION_TYPE":"U","NORAD_CAT_ID":49288,"ELEMENT_SET_NO":999,"REV_AT_EPOCH":18864,"BSTAR":2.381958e-6,"MEAN_MOTION_DOT":1.4e-7,"MEAN_MOTION_DDOT":0},{"OBJECT_NAME":"ONEWEB-0363","OBJECT_ID":"2021-090L","EPOCH":"2025-08-31T05:50:29.316768","MEAN_MOTION":13.20773009,"ECCENTRICITY":0.00022644,"INCLINATION":87.929,"RA_OF_ASC_NODE":332.2314,"ARG_OF_PERICENTER":97.8968,"MEAN_ANOMALY":262.2423,"EPHEMERIS_TYPE":0,"CLASSIFICATION_TYPE":"U","NORAD_CAT_ID":49289,"ELEMENT_SET_NO":999,"REV_AT_EPOCH":19203,"BSTAR":0.00016975331,"MEAN_MOTION_DOT":8.2e-7,"MEAN_MOTION_DDOT":0},{"OBJECT_NAME":"ONEWEB-0364","OBJECT_ID":"2021-090M","EPOCH":"2025-08-31T04:55:57.283104","MEAN_MOTION":13.20772093,"ECCENTRICITY":0.0002028,"INCLINATION":87.9285,"RA_OF_ASC_NODE":332.266,"ARG_OF_PERICENTER":97.2861,"MEAN_ANOMALY":262.8503,"EPHEMERIS_TYPE":0,"CLASSIFICATION_TYPE":"U","NORAD_CAT_ID":49290,"ELEMENT_SET_NO":999,"REV_AT_EPOCH":19316,"BSTAR":0.00031903161,"MEAN_MOTION_DOT":1.43e-6,"MEAN_MOTION_DDOT":0},{"OBJECT_NAME":"ONEWEB-0365","OBJECT_ID":"2021-090N","EPOCH":"2025-08-31T06:19:07.030848","MEAN_MOTION":13.19725393,"ECCENTRICITY":0.00017163,"INCLINATION":87.9274,"RA_OF_ASC_NODE":2.5868,"ARG_OF_PERICENTER":95.9366,"MEAN_ANOMALY":264.1962,"EPHEMERIS_TYPE":0,"CLASSIFICATION_TYPE":"U","NORAD_CAT_ID":49291,"ELEMENT_SET_NO":999,"REV_AT_EPOCH":18818,"BSTAR":-0.00062967726,"MEAN_MOTION_DOT":-2.39e-6,"MEAN_MOTION_DDOT":0}]
