ONEWEB-0352             
1 49216U 21083AG  25243.09312299 -.00000263  00000+0 -75487-3 0  9993
2 49216  87.9002  17.8851 0001303  95.1145 265.0133 13.13469459192942
ONEWEB-0354             
1 49217U 21083AH  25243.21182243  .00000058  00000+0  11188-3 0  9990
2 49217  87.9298 332.2297 0001957 107.9082 252.2265 13.20772833198531
ONEWEB-0355             
1 49218U 21083AJ  25243.12203833  .00000261  00000+0  68084-3 0  9993
2 49218  87.9019  17.8832 0001582 103.0546 257.0760 13.13468926192826
ONEWEB-0357             
1 49219U 21083AK  25243.20866338  .00000097  00000+0  20714-3 0  9993
2 49219  87.9290 332.2318 0001731 101.7031 258.4297 13.20773854198532
ONEWEB-0332             
1 49279U 21090A   25243.28599363  .00000253  00000+0  64695-3 0  9996
2 49279  87.9090 347.4291 0001672  91.8122 268.3200 13.14502291189495
ONEWEB-0347             
1 49280U 21090B   25243.19918297  .00000929  00000+0  22517-2 0  9995
2 49280  87.9296 332.2464 0002240  88.8686 271.2704 13.20780047192762
ONEWEB-0349             
1 49281U 21090C   25243.23075663 -.00000993  00000+0 -24747-2 0  9992
2 49281  87.9288 332.2418 0001841 100.4460 259.6881 13.20778884191558
ONEWEB-0353             
1 49282U 21090D   25243.27807139  .00000256  00000+0  65632-3 0  9997
2 49282  87.9085 347.4167 0001744  91.4243 268.7087 13.14502883189499
ONEWEB-0356             
1 49283U 21090E   25243.22917475  .00000039  00000+0  65071-4 0  9995
2 49283  87.9288 332.2334 0002775  93.1900 266.9550 13.20773856191559
ONEWEB-0358             
1 49284U 21090F   25243.25916396 -.00000066  00000+0 -19379-3 0  9991
2 49284  87.9294 332.2192 0001972 101.1796 258.9559 13.20770588192280
ONEWEB-0359             
1 49285U 21090G   25243.25601577  .00000065  00000+0  12818-3 0  9992
2 49285  87.9284 332.2288 0002030 109.5637 250.5716 13.20772779192263
ONEWEB-0360             
1 49286U 21090H   25243.24655801  .00000063  00000+0  12369-3 0  9990
2 49286  87.9284 332.2396 0001878 104.2674 255.8668 13.20771599191572
ONEWEB-0361             
1 49287U 21090J   25243.22760857  .00000019  00000+0  15476-4 0  9991
2 49287  87.9292 332.2387 0002028  97.5237 262.6127 13.20772930192026
ONEWEB-0362             
1 49288U 21090K   25243.02634779  .00000014  00000+0  23820-5 0  9991
2 49288  87.9275   2.6790 0001615 101.9955 258.1359 13.19727806188642
ONEWEB-0363             
1 49289U 21090L   25243.24339487  .00000082  00000+0  16975-3 0  9990
2 49289  87.9290 332.2314 0002264  97.8968 262.2423 13.20773009192036
ONEWEB-0364             
1 49290U 21090M   25243.20552411  .00000143  00000+0  31903-3 0  9998
2 49290  87.9285 332.2660 0002028  97.2861 262.8503 13.20772093193162
ONEWEB-0365             
1 49291U 21090N   25243.26327582 -.00000239  00000+0 -62968-3 0  9997
2 49291  87.9274   2.5868 0001716  95.9366 264.1962 13.19725393188185
